[{"OBJECT_NAME":"YAM-9","OBJECT_ID":"2025-276AE","EPOCH":"2026-03-09T22:50:50.806752","MEAN_MOTION":15.13845644,"ECCENTRICITY":0.00075521,"INCLINATION":97.4284,"RA_OF_ASC_NODE":143.9033,"ARG_OF_PERICENTER":298.5879,"MEAN_ANOMALY":61.4593,"EPHEMERIS_TYPE":0,"CLASSIFICATION_TYPE":"U","NORAD_CAT_ID":66694,"ELEMENT_SET_NO":999,"REV_AT_EPOCH":1533,"BSTAR":0.00045100507,"MEAN_MOTION_DOT":8.096e-5,"MEAN_MOTION_DDOT":0},{"OBJECT_NAME":"PEGASUS DEB","OBJECT_ID":"1994-029AER","EPOCH":"2026-02-26T06:39:21.581568","MEAN_MOTION":15.03561005,"ECCENTRICITY":0.01227406,"INCLINATION":81.7323,"RA_OF_ASC_NODE":356.2383,"ARG_OF_PERICENTER":77.7128,"MEAN_ANOMALY":283.7806,"EPHEMERIS_TYPE":0,"CLASSIFICATION_TYPE":"U","NORAD_CAT_ID":39306,"ELEMENT_SET_NO":999,"REV_AT_EPOCH":9218,"BSTAR":0.0046128236,"MEAN_MOTION_DOT":0.00074995,"MEAN_MOTION_DDOT":0}]
